start=new Date('2021-11-09T00:00:00.000Z').valueOf();
sats=[{"CLASSIFICATION_TYPE":"U","MEAN_ANOMALY":"288.3308","LAUNCH_DATE":"2020-08-18","TLE_LINE1":"1 46137U 20057W   21312.38374944  .00016976  00000-0  11556-2 0  9995","ELEMENT_SET_NO":"999","OBJECT_TYPE":"PAYLOAD","DECAY_DATE":null,"ECCENTRICITY":"0.00013880","FILE":"3209238","MEAN_MOTION_DOT":"0.00016976","BSTAR":"0.00115560000000","SITE":"AFETR","RCS_SIZE":"LARGE","RA_OF_ASC_NODE":"199.8638","OBJECT_NAME":"STARLINK-1586","PERIOD":"95.592","TLE_LINE2":"2 46137  53.0520 199.8638 0001388  71.7832 288.3308 15.06406717 67855","EPHEMERIS_TYPE":"0","INCLINATION":"53.0520","APOAPSIS":"548.154","PERIAPSIS":"546.232","COUNTRY_CODE":"US","TIME_SYSTEM":"UTC","NORAD_CAT_ID":"46137","EPOCH":"2021-11-08T09:12:35.951616","SEMIMAJOR_AXIS":"6925.328","REF_FRAME":"TEME","ARG_OF_PERICENTER":"71.7832","REV_AT_EPOCH":"6785","MEAN_MOTION":"15.06406717","OBJECT_ID":"2020-057W","MEAN_ELEMENT_THEORY":"SGP4","GP_ID":"189270507","MEAN_MOTION_DDOT":"0.0000000000000","CENTER_NAME":"EARTH"},{"ELEMENT_SET_NO":"999","LAUNCH_DATE":"2020-08-18","TLE_LINE1":"1 46138U 20057X   21312.44826418  .00011807  00000-0  81029-3 0  9992","MEAN_ANOMALY":"291.5426","CLASSIFICATION_TYPE":"U","SITE":"AFETR","BSTAR":"0.00081029000000","FILE":"3208448","ECCENTRICITY":"0.00014900","MEAN_MOTION_DOT":"0.00011807","DECAY_DATE":null,"OBJECT_TYPE":"PAYLOAD","PERIAPSIS":"546.196","COUNTRY_CODE":"US","TIME_SYSTEM":"UTC","NORAD_CAT_ID":"46138","EPOCH":"2021-11-08T10:45:30.025152","APOAPSIS":"548.259","EPHEMERIS_TYPE":"0","INCLINATION":"53.0532","PERIOD":"95.592","OBJECT_NAME":"STARLINK-1590","TLE_LINE2":"2 46138  53.0532 219.5750 0001490  68.5721 291.5426 15.06395466 68248","RCS_SIZE":"LARGE","RA_OF_ASC_NODE":"219.5750","OBJECT_ID":"2020-057X","CENTER_NAME":"EARTH","MEAN_MOTION_DDOT":"0.0000000000000","GP_ID":"189231501","MEAN_ELEMENT_THEORY":"SGP4","ARG_OF_PERICENTER":"68.5721","MEAN_MOTION":"15.06395466","REV_AT_EPOCH":"6824","REF_FRAME":"TEME","SEMIMAJOR_AXIS":"6925.362"},{"ELEMENT_SET_NO":"999","TLE_LINE1":"1 46140U 20057Z   21312.34133673  .00000661  00000-0  63291-4 0  9996","LAUNCH_DATE":"2020-08-18","MEAN_ANOMALY":"291.7882","CLASSIFICATION_TYPE":"U","BSTAR":"0.00006329100000","SITE":"AFETR","MEAN_MOTION_DOT":"0.00000661","FILE":"3209238","ECCENTRICITY":"0.00016820","DECAY_DATE":null,"OBJECT_TYPE":"PAYLOAD","NORAD_CAT_ID":"46140","TIME_SYSTEM":"UTC","EPOCH":"2021-11-08T08:11:31.493472","PERIAPSIS":"546.042","COUNTRY_CODE":"US","APOAPSIS":"548.371","EPHEMERIS_TYPE":"0","INCLINATION":"53.0533","TLE_LINE2":"2 46140  53.0533 180.0637 0001682  68.3285 291.7882 15.06402309 69394","PERIOD":"95.592","OBJECT_NAME":"STARLINK-1594","RA_OF_ASC_NODE":"180.0637","RCS_SIZE":"LARGE","CENTER_NAME":"EARTH","MEAN_MOTION_DDOT":"0.0000000000000","MEAN_ELEMENT_THEORY":"SGP4","GP_ID":"189269006","OBJECT_ID":"2020-057Z","ARG_OF_PERICENTER":"68.3285","REV_AT_EPOCH":"6939","MEAN_MOTION":"15.06402309","REF_FRAME":"TEME","SEMIMAJOR_AXIS":"6925.341"},{"FILE":"3209620","ECCENTRICITY":"0.00014490","MEAN_MOTION_DOT":"0.00005032","SITE":"AFETR","BSTAR":"0.00035668000000","OBJECT_TYPE":"PAYLOAD","DECAY_DATE":null,"LAUNCH_DATE":"2020-08-18","TLE_LINE1":"1 46141U 20057AA  21312.91637398  .00005032  00000-0  35668-3 0  9996","ELEMENT_SET_NO":"999","CLASSIFICATION_TYPE":"U","MEAN_ANOMALY":"282.4423","ARG_OF_PERICENTER":"77.6728","REV_AT_EPOCH":"6821","MEAN_MOTION":"15.06380321","OBJECT_ID":"2020-057AA","MEAN_MOTION_DDOT":"0.0000000000000","CENTER_NAME":"EARTH","GP_ID":"189300243","MEAN_ELEMENT_THEORY":"SGP4","SEMIMAJOR_AXIS":"6925.409","REF_FRAME":"TEME","APOAPSIS":"548.277","EPHEMERIS_TYPE":"0","INCLINATION":"53.0532","PERIAPSIS":"546.270","COUNTRY_CODE":"US","TIME_SYSTEM":"UTC","NORAD_CAT_ID":"46141","EPOCH":"2021-11-08T21:59:34.711872","RCS_SIZE":"LARGE","RA_OF_ASC_NODE":"177.4829","PERIOD":"95.593","OBJECT_NAME":"STARLINK-1596","TLE_LINE2":"2 46141  53.0532 177.4829 0001449  77.6728 282.4423 15.06380321 68210"},{"OBJECT_TYPE":"PAYLOAD","DECAY_DATE":null,"MEAN_MOTION_DOT":"0.00002652","FILE":"3209238","ECCENTRICITY":"0.00015050","BSTAR":"0.00019690000000","SITE":"AFETR","CLASSIFICATION_TYPE":"U","MEAN_ANOMALY":"293.5702","TLE_LINE1":"1 46142U 20057AB  21312.47034650  .00002652  00000-0  19690-3 0  9992","LAUNCH_DATE":"2020-08-18","ELEMENT_SET_NO":"999","SEMIMAJOR_AXIS":"6925.358","REF_FRAME":"TEME","REV_AT_EPOCH":"6758","MEAN_MOTION":"15.06397056","ARG_OF_PERICENTER":"66.5445","GP_ID":"189270008","MEAN_ELEMENT_THEORY":"SGP4","MEAN_MOTION_DDOT":"0.0000000000000","CENTER_NAME":"EARTH","OBJECT_ID":"2020-057AB","RA_OF_ASC_NODE":"219.4818","RCS_SIZE":"LARGE","TLE_LINE2":"2 46142  53.0544 219.4818 0001505  66.5445 293.5702 15.06397056 67580","OBJECT_NAME":"STARLINK-1597","PERIOD":"95.592","EPHEMERIS_TYPE":"0","INCLINATION":"53.0544","APOAPSIS":"548.265","TIME_SYSTEM":"UTC","EPOCH":"2021-11-08T11:17:17.937600","NORAD_CAT_ID":"46142","PERIAPSIS":"546.180","COUNTRY_CODE":"US"},{"TLE_LINE2":"2 46143  53.0548 192.2420 0001455  78.4791 281.6377 15.42140045 67997","OBJECT_NAME":"STARLINK-1599","PERIOD":"93.377","RA_OF_ASC_NODE":"192.2420","RCS_SIZE":"LARGE","TIME_SYSTEM":"UTC","EPOCH":"2021-11-08T17:27:10.022976","NORAD_CAT_ID":"46143","PERIAPSIS":"438.804","COUNTRY_CODE":"US","INCLINATION":"53.0548","EPHEMERIS_TYPE":"0","APOAPSIS":"440.788","REF_FRAME":"TEME","SEMIMAJOR_AXIS":"6817.931","MEAN_ELEMENT_THEORY":"SGP4","GP_ID":"189301245","MEAN_MOTION_DDOT":"0.0000000000000","CENTER_NAME":"EARTH","OBJECT_ID":"2020-057AC","REV_AT_EPOCH":"6799","MEAN_MOTION":"15.42140045","ARG_OF_PERICENTER":"78.4791","MEAN_ANOMALY":"281.6377","CLASSIFICATION_TYPE":"U","ELEMENT_SET_NO":"999","TLE_LINE1":"1 46143U 20057AC  21312.72719934  .00013030  00000-0  30854-3 0  9993","LAUNCH_DATE":"2020-08-18","DECAY_DATE":null,"OBJECT_TYPE":"PAYLOAD","BSTAR":"0.00030854000000","SITE":"AFETR","MEAN_MOTION_DOT":"0.00013030","FILE":"3209620","ECCENTRICITY":"0.00014550"},{"RCS_SIZE":"LARGE","RA_OF_ASC_NODE":"201.4252","OBJECT_NAME":"STARLINK-1606","PERIOD":"95.593","TLE_LINE2":"2 46144  53.0531 201.4252 0001531  53.1581 306.9548 15.06380480 56053","INCLINATION":"53.0531","EPHEMERIS_TYPE":"0","APOAPSIS":"548.334","PERIAPSIS":"546.213","COUNTRY_CODE":"US","EPOCH":"2021-11-08T00:53:40.907328","NORAD_CAT_ID":"46144","TIME_SYSTEM":"UTC","SEMIMAJOR_AXIS":"6925.408","REF_FRAME":"TEME","ARG_OF_PERICENTER":"53.1581","MEAN_MOTION":"15.06380480","REV_AT_EPOCH":"5605","OBJECT_ID":"2020-057AD","GP_ID":"189269506","MEAN_ELEMENT_THEORY":"SGP4","MEAN_MOTION_DDOT":"0.0000000000000","CENTER_NAME":"EARTH","CLASSIFICATION_TYPE":"U","MEAN_ANOMALY":"306.9548","LAUNCH_DATE":"2020-08-18","TLE_LINE1":"1 46144U 20057AD  21312.03727902  .00002073  00000-0  15809-3 0  9990","ELEMENT_SET_NO":"999","OBJECT_TYPE":"PAYLOAD","DECAY_DATE":null,"ECCENTRICITY":"0.00015310","FILE":"3209238","MEAN_MOTION_DOT":"0.00002073","BSTAR":"0.00015809000000","SITE":"AFETR"},{"MEAN_ANOMALY":"285.6421","CLASSIFICATION_TYPE":"U","ELEMENT_SET_NO":"999","LAUNCH_DATE":"2020-08-18","TLE_LINE1":"1 46146U 20057AF  21312.48141709  .00005004  00000-0  35463-3 0  9991","DECAY_DATE":null,"OBJECT_TYPE":"PAYLOAD","BSTAR":"0.00035463000000","SITE":"AFETR","ECCENTRICITY":"0.00016030","FILE":"3209238","MEAN_MOTION_DOT":"0.00005004","OBJECT_NAME":"STARLINK-1608","PERIOD":"95.592","TLE_LINE2":"2 46146  53.0537 219.4363 0001603  74.4745 285.6421 15.06398509 67596","RCS_SIZE":"LARGE","RA_OF_ASC_NODE":"219.4363","COUNTRY_CODE":"US","PERIAPSIS":"546.108","NORAD_CAT_ID":"46146","TIME_SYSTEM":"UTC","EPOCH":"2021-11-08T11:33:14.436576","EPHEMERIS_TYPE":"0","INCLINATION":"53.0537","APOAPSIS":"548.328","REF_FRAME":"TEME","SEMIMAJOR_AXIS":"6925.353","OBJECT_ID":"2020-057AF","GP_ID":"189269758","MEAN_ELEMENT_THEORY":"SGP4","CENTER_NAME":"EARTH","MEAN_MOTION_DDOT":"0.0000000000000","MEAN_MOTION":"15.06398509","ARG_OF_PERICENTER":"74.4745","REV_AT_EPOCH":"6759"},{"TLE_LINE2":"2 46147  53.0510 219.5148 0001048  66.7398 293.3701 15.06411460 68243","PERIOD":"95.591","OBJECT_NAME":"STARLINK-1611","RA_OF_ASC_NODE":"219.5148","RCS_SIZE":"LARGE","EPOCH":"2021-11-08T11:06:44.699904","NORAD_CAT_ID":"46147","TIME_SYSTEM":"UTC","PERIAPSIS":"546.453","COUNTRY_CODE":"US","APOAPSIS":"547.904","INCLINATION":"53.0510","EPHEMERIS_TYPE":"0","REF_FRAME":"TEME","SEMIMAJOR_AXIS":"6925.313","MEAN_MOTION_DDOT":"0.0000000000000","CENTER_NAME":"EARTH","MEAN_ELEMENT_THEORY":"SGP4","GP_ID":"189273670","OBJECT_ID":"2020-057AG","ARG_OF_PERICENTER":"66.7398","MEAN_MOTION":"15.06411460","REV_AT_EPOCH":"6824","MEAN_ANOMALY":"293.3701","CLASSIFICATION_TYPE":"U","ELEMENT_SET_NO":"999","TLE_LINE1":"1 46147U 20057AG  21312.46301736  .00022222  00000-0  15056-2 0  9994","LAUNCH_DATE":"2020-08-18","DECAY_DATE":null,"OBJECT_TYPE":"PAYLOAD","SITE":"AFETR","BSTAR":"0.00150560000000","MEAN_MOTION_DOT":"0.00022222","FILE":"3209256","ECCENTRICITY":"0.00010480"},{"REF_FRAME":"TEME","SEMIMAJOR_AXIS":"6925.377","MEAN_ELEMENT_THEORY":"SGP4","GP_ID":"189270509","MEAN_MOTION_DDOT":"0.0000000000000","CENTER_NAME":"EARTH","OBJECT_ID":"2020-057AH","ARG_OF_PERICENTER":"68.8827","MEAN_MOTION":"15.06390845","REV_AT_EPOCH":"6785","TLE_LINE2":"2 46148  53.0521 199.7783 0001542  68.8827 291.2327 15.06390845 67859","OBJECT_NAME":"STARLINK-1616","PERIOD":"95.593","RA_OF_ASC_NODE":"199.7783","RCS_SIZE":"LARGE","TIME_SYSTEM":"UTC","NORAD_CAT_ID":"46148","EPOCH":"2021-11-08T09:39:06.875424","COUNTRY_CODE":"US","PERIAPSIS":"546.174","INCLINATION":"53.0521","EPHEMERIS_TYPE":"0","APOAPSIS":"548.310","DECAY_DATE":null,"OBJECT_TYPE":"PAYLOAD","BSTAR":"0.00007485400000","SITE":"AFETR","MEAN_MOTION_DOT":"0.00000833","FILE":"3209238","ECCENTRICITY":"0.00015420","MEAN_ANOMALY":"291.2327","CLASSIFICATION_TYPE":"U","ELEMENT_SET_NO":"999","TLE_LINE1":"1 46148U 20057AH  21312.40216291  .00000833  00000-0  74854-4 0  9997","LAUNCH_DATE":"2020-08-18"}];
